*******************************************************************************
Ephemeris / WWW_USER Mon Jul 15 19:17:46 2024 Pasadena, USA      / Horizons    
*******************************************************************************
Target body name: (2018 YU2)                      {source: JPL#5}
Center body name: Earth (399)                     {source: DE441}
Center-site name: Gemini South Obs., Cerro Pachon
*******************************************************************************
Start time      : A.D. 2018-Dec-25 23:55:00.0000 UT      
Stop  time      : A.D. 2018-Dec-26 09:31:00.0000 UT      
Step-size       : 1 minutes
*******************************************************************************
Target pole/equ : undefined
Target radii    : undefined                                                    
Center geodetic : 289.2634, -30.2406227, 2.71233  {E-lon(deg),Lat(deg),Alt(km)}
Center cylindric: 289.2634,5517.21435,-3194.81213 {E-lon(deg),Dxy(km),Dz(km)}
Center pole/equ : ITRF93                          {East-longitude positive}
Center radii    : 6378.137, 6378.137, 6356.752 km {Equator_a, b, pole_c}       
Target primary  : Sun
Vis. interferer : MOON (R_eq= 1737.400) km        {source: DE441}
Rel. light bend : Sun                             {source: DE441}
Rel. lght bnd GM: 1.3271E+11 km^3/s^2                                          
Small-body perts: Yes                             {source: SB441-N16}
Atmos refraction: NO (AIRLESS)
RA format       : HMS
Time format     : CAL 
Calendar mode   : Mixed Julian/Gregorian
RTS-only print  : NO       
EOP file        : eop.240715.p241008                                           
EOP coverage    : DATA-BASED 1962-JAN-20 TO 2024-JUL-15. PREDICTS-> 2024-OCT-07
Units conversion: 1 au= 149597870.700 km, c= 299792.458 km/s, 1 day= 86400.0 s 
Table cut-offs 1: Elevation (-90.0deg=NO ),Airmass (>38.000=NO), Daylight (YES)
Table cut-offs 2: Solar elongation (  0.0,180.0=NO ),Local Hour Angle( 0.0=NO )
Table cut-offs 3: RA/DEC angular rate (     0.0=NO )                           
*******************************************************************************
Initial IAU76/J2000 heliocentric ecliptic osculating elements (au, days, deg.):
  EPOCH=  2458477.5 ! 2018-Dec-25.00 (TDB)         Residual RMS= .22887        
   EC= .1533598773405833   QR= .920984914841031    TP= 2458549.1486254167      
   OM= 279.4515303175068   W=  253.4059234937716   IN= 2.850769624588425       
  Equivalent ICRF heliocentric cartesian coordinates (au, au/d):
   X=-6.842297687009524E-02  Y= 9.429126817220428E-01  Z= 4.143187104036840E-01
  VX=-1.695115058702848E-02 VY=-2.997207899955317E-03 VZ=-2.239432528215744E-03
Asteroid physical parameters (km, seconds, rotational period in hours):        
   GM= n.a.                RAD= n.a.               ROTPER= n.a.                
   H= 26.5                 G= .150                 B-V= n.a.                   
                           ALBEDO= n.a.            STYP= n.a.                  
*******************************************************************************
 Date__(UT)__HR:MN     R.A._________(ICRF)_________DEC
******************************************************
$$SOE
 2018-Dec-26 01:58     07 41 38.340883 +26 25 07.10384
 2018-Dec-26 01:59     07 41 38.416095 +26 25 05.26233
 2018-Dec-26 02:00     07 41 38.491114 +26 25 03.42003
 2018-Dec-26 02:01     07 41 38.565940 +26 25 01.57694
 2018-Dec-26 02:02     07 41 38.640573 +26 24 59.73306
 2018-Dec-26 02:03     07 41 38.715014 +26 24 57.88838
 2018-Dec-26 02:04     07 41 38.789263 +26 24 56.04290
 2018-Dec-26 02:05     07 41 38.863321 +26 24 54.19660
 2018-Dec-26 02:06     07 41 38.937188 +26 24 52.34949
 2018-Dec-26 02:07     07 41 39.010865 +26 24 50.50156
 2018-Dec-26 02:08     07 41 39.084351 +26 24 48.65281
 2018-Dec-26 02:09     07 41 39.157648 +26 24 46.80322
 2018-Dec-26 02:10     07 41 39.230757 +26 24 44.95280
 2018-Dec-26 02:11     07 41 39.303676 +26 24 43.10154
 2018-Dec-26 02:12     07 41 39.376408 +26 24 41.24943
 2018-Dec-26 02:13     07 41 39.448952 +26 24 39.39647
 2018-Dec-26 02:14     07 41 39.521308 +26 24 37.54266
 2018-Dec-26 02:15     07 41 39.593479 +26 24 35.68799
 2018-Dec-26 02:16     07 41 39.665463 +26 24 33.83245
 2018-Dec-26 02:17     07 41 39.737261 +26 24 31.97604
 2018-Dec-26 02:18     07 41 39.808875 +26 24 30.11875
 2018-Dec-26 02:19     07 41 39.880304 +26 24 28.26059
 2018-Dec-26 02:20     07 41 39.951548 +26 24 26.40154
 2018-Dec-26 02:21     07 41 40.022609 +26 24 24.54160
 2018-Dec-26 02:22     07 41 40.093487 +26 24 22.68076
 2018-Dec-26 02:23     07 41 40.164183 +26 24 20.81902
 2018-Dec-26 02:24     07 41 40.234696 +26 24 18.95638
 2018-Dec-26 02:25     07 41 40.305028 +26 24 17.09283
 2018-Dec-26 02:26     07 41 40.375178 +26 24 15.22837
 2018-Dec-26 02:27     07 41 40.445149 +26 24 13.36298
 2018-Dec-26 02:28     07 41 40.514939 +26 24 11.49667
 2018-Dec-26 02:29     07 41 40.584550 +26 24 09.62943
 2018-Dec-26 02:30     07 41 40.653982 +26 24 07.76126
 2018-Dec-26 02:31     07 41 40.723236 +26 24 05.89215
 2018-Dec-26 02:32     07 41 40.792312 +26 24 04.02210
 2018-Dec-26 02:33  m  07 41 40.861211 +26 24 02.15109
 2018-Dec-26 02:34  m  07 41 40.929933 +26 24 00.27914
 2018-Dec-26 02:35  m  07 41 40.998479 +26 23 58.40623
 2018-Dec-26 02:36  m  07 41 41.066850 +26 23 56.53235
 2018-Dec-26 02:37  m  07 41 41.135045 +26 23 54.65751
 2018-Dec-26 02:38  m  07 41 41.203066 +26 23 52.78169
 2018-Dec-26 02:39  m  07 41 41.270914 +26 23 50.90490
 2018-Dec-26 02:40  m  07 41 41.338588 +26 23 49.02713
 2018-Dec-26 02:41  m  07 41 41.406089 +26 23 47.14837
 2018-Dec-26 02:42  m  07 41 41.473418 +26 23 45.26862
 2018-Dec-26 02:43  m  07 41 41.540576 +26 23 43.38788
 2018-Dec-26 02:44  m  07 41 41.607563 +26 23 41.50614
 2018-Dec-26 02:45  m  07 41 41.674380 +26 23 39.62339
 2018-Dec-26 02:46  m  07 41 41.741027 +26 23 37.73963
 2018-Dec-26 02:47  m  07 41 41.807505 +26 23 35.85486
 2018-Dec-26 02:48  m  07 41 41.873814 +26 23 33.96908
 2018-Dec-26 02:49  m  07 41 41.939955 +26 23 32.08227
 2018-Dec-26 02:50  m  07 41 42.005929 +26 23 30.19443
 2018-Dec-26 02:51  m  07 41 42.071737 +26 23 28.30556
 2018-Dec-26 02:52  m  07 41 42.137378 +26 23 26.41566
 2018-Dec-26 02:53  m  07 41 42.202854 +26 23 24.52472
 2018-Dec-26 02:54  m  07 41 42.268165 +26 23 22.63273
 2018-Dec-26 02:55  m  07 41 42.333312 +26 23 20.73969
 2018-Dec-26 02:56  m  07 41 42.398296 +26 23 18.84560
 2018-Dec-26 02:57  m  07 41 42.463116 +26 23 16.95045
 2018-Dec-26 02:58  m  07 41 42.527774 +26 23 15.05424
 2018-Dec-26 02:59  m  07 41 42.592271 +26 23 13.15697
 2018-Dec-26 03:00  m  07 41 42.656607 +26 23 11.25862
 2018-Dec-26 03:01  m  07 41 42.720782 +26 23 09.35920
 2018-Dec-26 03:02  m  07 41 42.784797 +26 23 07.45869
 2018-Dec-26 03:03  m  07 41 42.848654 +26 23 05.55711
 2018-Dec-26 03:04  m  07 41 42.912352 +26 23 03.65443
 2018-Dec-26 03:05  m  07 41 42.975892 +26 23 01.75067
 2018-Dec-26 03:06  m  07 41 43.039275 +26 22 59.84580
 2018-Dec-26 03:07  m  07 41 43.102502 +26 22 57.93984
 2018-Dec-26 03:08  m  07 41 43.165574 +26 22 56.03277
 2018-Dec-26 03:09  m  07 41 43.228490 +26 22 54.12459
 2018-Dec-26 03:10  m  07 41 43.291251 +26 22 52.21530
 2018-Dec-26 03:11  m  07 41 43.353859 +26 22 50.30490
 2018-Dec-26 03:12  m  07 41 43.416314 +26 22 48.39337
 2018-Dec-26 03:13  m  07 41 43.478617 +26 22 46.48071
 2018-Dec-26 03:14  m  07 41 43.540768 +26 22 44.56693
 2018-Dec-26 03:15  m  07 41 43.602768 +26 22 42.65201
 2018-Dec-26 03:16  m  07 41 43.664618 +26 22 40.73595
 2018-Dec-26 03:17  m  07 41 43.726318 +26 22 38.81875
 2018-Dec-26 03:18  m  07 41 43.787870 +26 22 36.90041
 2018-Dec-26 03:19  m  07 41 43.849273 +26 22 34.98091
 2018-Dec-26 03:20  m  07 41 43.910529 +26 22 33.06027
 2018-Dec-26 03:21  m  07 41 43.971638 +26 22 31.13846
 2018-Dec-26 03:22  m  07 41 44.032601 +26 22 29.21549
 2018-Dec-26 03:23  m  07 41 44.093418 +26 22 27.29136
 2018-Dec-26 03:24  m  07 41 44.154091 +26 22 25.36606
 2018-Dec-26 03:25  m  07 41 44.214621 +26 22 23.43958
 2018-Dec-26 03:26  m  07 41 44.275007 +26 22 21.51193
 2018-Dec-26 03:27  m  07 41 44.335250 +26 22 19.58310
 2018-Dec-26 03:28  m  07 41 44.395352 +26 22 17.65308
 2018-Dec-26 03:29  m  07 41 44.455313 +26 22 15.72187
 2018-Dec-26 03:30  m  07 41 44.515134 +26 22 13.78947
 2018-Dec-26 03:31  m  07 41 44.574815 +26 22 11.85587
 2018-Dec-26 03:32  m  07 41 44.634358 +26 22 09.92108
 2018-Dec-26 03:33  m  07 41 44.693762 +26 22 07.98508
 2018-Dec-26 03:34  m  07 41 44.753029 +26 22 06.04787
 2018-Dec-26 03:35  m  07 41 44.812160 +26 22 04.10945
 2018-Dec-26 03:36  m  07 41 44.871155 +26 22 02.16982
 2018-Dec-26 03:37  m  07 41 44.930015 +26 22 00.22896
 2018-Dec-26 03:38  m  07 41 44.988740 +26 21 58.28689
 2018-Dec-26 03:39  m  07 41 45.047332 +26 21 56.34359
 2018-Dec-26 03:40  m  07 41 45.105792 +26 21 54.39906
 2018-Dec-26 03:41  m  07 41 45.164119 +26 21 52.45330
 2018-Dec-26 03:42  m  07 41 45.222316 +26 21 50.50630
 2018-Dec-26 03:43  m  07 41 45.280382 +26 21 48.55806
 2018-Dec-26 03:44  m  07 41 45.338318 +26 21 46.60858
 2018-Dec-26 03:45  m  07 41 45.396125 +26 21 44.65785
 2018-Dec-26 03:46  m  07 41 45.453804 +26 21 42.70587
 2018-Dec-26 03:47  m  07 41 45.511356 +26 21 40.75263
 2018-Dec-26 03:48  m  07 41 45.568782 +26 21 38.79814
 2018-Dec-26 03:49  m  07 41 45.626081 +26 21 36.84239
 2018-Dec-26 03:50  m  07 41 45.683256 +26 21 34.88538
 2018-Dec-26 03:51  m  07 41 45.740307 +26 21 32.92709
 2018-Dec-26 03:52  m  07 41 45.797234 +26 21 30.96754
 2018-Dec-26 03:53  m  07 41 45.854038 +26 21 29.00671
 2018-Dec-26 03:54  m  07 41 45.910721 +26 21 27.04461
 2018-Dec-26 03:55  m  07 41 45.967283 +26 21 25.08122
 2018-Dec-26 03:56  m  07 41 46.023725 +26 21 23.11655
 2018-Dec-26 03:57  m  07 41 46.080047 +26 21 21.15059
 2018-Dec-26 03:58  m  07 41 46.136251 +26 21 19.18334
 2018-Dec-26 03:59  m  07 41 46.192337 +26 21 17.21480
 2018-Dec-26 04:00  m  07 41 46.248306 +26 21 15.24496
